[Satellite]
VERSION=1.1
NAME=THEMIS E
NICKNAME=THEMIS E
TLE1=1 30798U 07004E   15054.71731787 -.00000187  00000-0  00000+0 0  9990
TLE2=2 30798   9.1720 327.8846 8283920 253.2441   1.9036  1.00263643 29161
